GEOEYE 1                
1 33331U 08042A   26192.88208381  .00000194  00000+0  45394-4 0  9997
2 33331  98.1328 266.5167 0004189 357.9335   2.1849 14.64647721953762
GOES 14                 
1 35491U 09033A   26192.80398917 -.00000352  00000+0  00000+0 0  9991
2 35491   1.7505  82.7359 0001876  40.0902 223.4941  1.00099795  6835
GAOFEN-8                
1 40701U 15030A   26192.93571461  .00015724  00000+0  31404-3 0  9990
2 40701  97.6898  27.8077 0009958 105.7752 254.4596 15.46867734615277
GAOFEN-9 01             
1 40894U 15047A   26192.96144604  .00000556  00000+0  74292-4 0  9999
2 40894  97.6270 227.5296 0028626  60.6270 299.7798 14.82931360583864
GAOFEN-4                
1 41194U 15083A   26192.92057102 -.00000331  00000+0  00000+0 0  9998
2 41194   0.4175  83.8486 0004481 121.3118 161.7458  1.00268546 38778
GOES 16                 
1 41866U 16071A   26192.82938263 -.00000087  00000+0  00000+0 0  9995
2 41866   0.3948  85.5062 0000525  98.5955 299.5179  1.00270880 35354
GAOFEN-5 01             
1 43461U 18043A   26192.86043952  .00000153  00000+0  41589-4 0  9990
2 43461  98.4587 164.9673 0002283  38.6009 321.5354 14.60622043435292
GAOFEN-6                
1 43484U 18048A   26192.94331469  .00000479  00000+0  76429-4 0  9994
2 43484  98.0964 255.6373 0012156  90.9753 269.2849 14.76381500437043
GEO-KOMPSAT-2A          
1 43823U 18100A   26192.80416251 -.00000339  00000+0  00000+0 0  9991
2 43823   0.0255 118.0813 0001946 343.4761 245.9138  1.00271415 27871
GAOFEN-3 03             
1 52200U 22035A   26192.99760931 -.00000163  00000+0 -36407-4 0  9990
2 52200  98.4069 201.2176 0001730  91.6323 268.5065 14.42217438224423
