{
 "generated_at": "2026-07-12T07:29:19Z",
 "sources": [
  {
   "name": "CelesTrak",
   "url": "https://celestrak.org/NORAD/elements/",
   "license": "frei verfügbar; Attribution. Ursprünglich USSPACECOM/Space-Track."
  },
  {
   "name": "GCAT (J. McDowell, planet4589.org)",
   "url": "https://planet4589.org/space/gcat/",
   "license": "CC-BY 4.0"
  }
 ],
 "satellites": [
  {
   "norad": 52200,
   "name": "GAOFEN-3 03",
   "intl": "2022-035A",
   "group": "sar",
   "gcat": {
    "class": "C",
    "category": "IMG-R",
    "owner": "GWHYZ",
    "state": "CN"
   },
   "omm": {
    "OBJECT_NAME": "GAOFEN-3 03",
    "OBJECT_ID": "2022-035A",
    "EPOCH": "2026-07-11T23:56:33.444384",
    "MEAN_MOTION": 14.42217438,
    "ECCENTRICITY": 0.00017303,
    "INCLINATION": 98.4069,
    "RA_OF_ASC_NODE": 201.2176,
    "ARG_OF_PERICENTER": 91.6323,
    "MEAN_ANOMALY": 268.5065,
    "EPHEMERIS_TYPE": 0,
    "CLASSIFICATION_TYPE": "U",
    "NORAD_CAT_ID": 52200,
    "ELEMENT_SET_NO": 999,
    "REV_AT_EPOCH": 22442,
    "BSTAR": -0.000036406882,
    "MEAN_MOTION_DOT": -0.00000163,
    "MEAN_MOTION_DDOT": 0
   }
  },
  {
   "norad": 41194,
   "name": "GAOFEN-4",
   "intl": "2015-083A",
   "group": "resource",
   "gcat": {
    "class": "C",
    "category": "IMG",
    "owner": "CNSAS",
    "state": "CN"
   },
   "omm": {
    "OBJECT_NAME": "GAOFEN-4",
    "OBJECT_ID": "2015-083A",
    "EPOCH": "2026-07-11T22:05:37.336128",
    "MEAN_MOTION": 1.00268546,
    "ECCENTRICITY": 0.00044816,
    "INCLINATION": 0.4175,
    "RA_OF_ASC_NODE": 83.8486,
    "ARG_OF_PERICENTER": 121.3118,
    "MEAN_ANOMALY": 161.7458,
    "EPHEMERIS_TYPE": 0,
    "CLASSIFICATION_TYPE": "U",
    "NORAD_CAT_ID": 41194,
    "ELEMENT_SET_NO": 999,
    "REV_AT_EPOCH": 3877,
    "BSTAR": 0,
    "MEAN_MOTION_DOT": -0.00000331,
    "MEAN_MOTION_DDOT": 0
   }
  },
  {
   "norad": 43461,
   "name": "GAOFEN-5 01",
   "intl": "2018-043A",
   "group": "resource",
   "gcat": {
    "class": null,
    "category": null,
    "owner": null,
    "state": null
   },
   "omm": {
    "OBJECT_NAME": "GAOFEN-5 01",
    "OBJECT_ID": "2018-043A",
    "EPOCH": "2026-07-11T20:39:01.974528",
    "MEAN_MOTION": 14.60622043,
    "ECCENTRICITY": 0.00022834,
    "INCLINATION": 98.4587,
    "RA_OF_ASC_NODE": 164.9673,
    "ARG_OF_PERICENTER": 38.6009,
    "MEAN_ANOMALY": 321.5354,
    "EPHEMERIS_TYPE": 0,
    "CLASSIFICATION_TYPE": "U",
    "NORAD_CAT_ID": 43461,
    "ELEMENT_SET_NO": 999,
    "REV_AT_EPOCH": 43529,
    "BSTAR": 0.000041589373,
    "MEAN_MOTION_DOT": 0.00000153,
    "MEAN_MOTION_DDOT": 0
   }
  },
  {
   "norad": 43484,
   "name": "GAOFEN-6",
   "intl": "2018-048A",
   "group": "resource",
   "gcat": {
    "class": "C",
    "category": "IMG",
    "owner": "CNSAS",
    "state": "CN"
   },
   "omm": {
    "OBJECT_NAME": "GAOFEN-6",
    "OBJECT_ID": "2018-048A",
    "EPOCH": "2026-07-11T22:38:22.389216",
    "MEAN_MOTION": 14.763815,
    "ECCENTRICITY": 0.00121566,
    "INCLINATION": 98.0964,
    "RA_OF_ASC_NODE": 255.6373,
    "ARG_OF_PERICENTER": 90.9753,
    "MEAN_ANOMALY": 269.2849,
    "EPHEMERIS_TYPE": 0,
    "CLASSIFICATION_TYPE": "U",
    "NORAD_CAT_ID": 43484,
    "ELEMENT_SET_NO": 999,
    "REV_AT_EPOCH": 43704,
    "BSTAR": 0.000076429485,
    "MEAN_MOTION_DOT": 0.00000479,
    "MEAN_MOTION_DDOT": 0
   }
  },
  {
   "norad": 40701,
   "name": "GAOFEN-8",
   "intl": "2015-030A",
   "group": "resource",
   "gcat": {
    "class": "D",
    "category": "IMG",
    "owner": "ZZB",
    "state": "CN"
   },
   "omm": {
    "OBJECT_NAME": "GAOFEN-8",
    "OBJECT_ID": "2015-030A",
    "EPOCH": "2026-07-11T22:27:25.742304",
    "MEAN_MOTION": 15.46867734,
    "ECCENTRICITY": 0.00099582,
    "INCLINATION": 97.6898,
    "RA_OF_ASC_NODE": 27.8077,
    "ARG_OF_PERICENTER": 105.7752,
    "MEAN_ANOMALY": 254.4596,
    "EPHEMERIS_TYPE": 0,
    "CLASSIFICATION_TYPE": "U",
    "NORAD_CAT_ID": 40701,
    "ELEMENT_SET_NO": 999,
    "REV_AT_EPOCH": 61527,
    "BSTAR": 0.00031403956,
    "MEAN_MOTION_DOT": 0.00015724,
    "MEAN_MOTION_DDOT": 0
   }
  },
  {
   "norad": 40894,
   "name": "GAOFEN-9 01",
   "intl": "2015-047A",
   "group": "resource",
   "gcat": {
    "class": null,
    "category": null,
    "owner": null,
    "state": null
   },
   "omm": {
    "OBJECT_NAME": "GAOFEN-9 01",
    "OBJECT_ID": "2015-047A",
    "EPOCH": "2026-07-11T23:04:28.937856",
    "MEAN_MOTION": 14.8293136,
    "ECCENTRICITY": 0.00286261,
    "INCLINATION": 97.627,
    "RA_OF_ASC_NODE": 227.5296,
    "ARG_OF_PERICENTER": 60.627,
    "MEAN_ANOMALY": 299.7798,
    "EPHEMERIS_TYPE": 0,
    "CLASSIFICATION_TYPE": "U",
    "NORAD_CAT_ID": 40894,
    "ELEMENT_SET_NO": 999,
    "REV_AT_EPOCH": 58386,
    "BSTAR": 0.000074292187,
    "MEAN_MOTION_DOT": 0.00000556,
    "MEAN_MOTION_DDOT": 0
   }
  },
  {
   "norad": 43823,
   "name": "GEO-KOMPSAT-2A",
   "intl": "2018-100A",
   "group": "weather",
   "gcat": {
    "class": "C",
    "category": "MET",
    "owner": "KARI",
    "state": "KR"
   },
   "omm": {
    "OBJECT_NAME": "GEO-KOMPSAT-2A",
    "OBJECT_ID": "2018-100A",
    "EPOCH": "2026-07-11T19:17:59.640864",
    "MEAN_MOTION": 1.00271415,
    "ECCENTRICITY": 0.00019466,
    "INCLINATION": 0.0255,
    "RA_OF_ASC_NODE": 118.0813,
    "ARG_OF_PERICENTER": 343.4761,
    "MEAN_ANOMALY": 245.9138,
    "EPHEMERIS_TYPE": 0,
    "CLASSIFICATION_TYPE": "U",
    "NORAD_CAT_ID": 43823,
    "ELEMENT_SET_NO": 999,
    "REV_AT_EPOCH": 2787,
    "BSTAR": 0,
    "MEAN_MOTION_DOT": -0.00000339,
    "MEAN_MOTION_DDOT": 0
   }
  },
  {
   "norad": 33331,
   "name": "GEOEYE 1",
   "intl": "2008-042A",
   "group": "resource",
   "gcat": {
    "class": null,
    "category": "IMG",
    "owner": "GEYE",
    "state": "US"
   },
   "omm": {
    "OBJECT_NAME": "GEOEYE 1",
    "OBJECT_ID": "2008-042A",
    "EPOCH": "2026-07-11T21:10:12.041184",
    "MEAN_MOTION": 14.64647721,
    "ECCENTRICITY": 0.00041892,
    "INCLINATION": 98.1328,
    "RA_OF_ASC_NODE": 266.5167,
    "ARG_OF_PERICENTER": 357.9335,
    "MEAN_ANOMALY": 2.1849,
    "EPHEMERIS_TYPE": 0,
    "CLASSIFICATION_TYPE": "U",
    "NORAD_CAT_ID": 33331,
    "ELEMENT_SET_NO": 999,
    "REV_AT_EPOCH": 95376,
    "BSTAR": 0.0000453937,
    "MEAN_MOTION_DOT": 0.00000194,
    "MEAN_MOTION_DDOT": 0
   }
  },
  {
   "norad": 35491,
   "name": "GOES 14",
   "intl": "2009-033A",
   "group": "weather",
   "gcat": {
    "class": "C",
    "category": "MET",
    "owner": "NOAA",
    "state": "US"
   },
   "omm": {
    "OBJECT_NAME": "GOES 14",
    "OBJECT_ID": "2009-033A",
    "EPOCH": "2026-07-11T19:17:44.664288",
    "MEAN_MOTION": 1.00099795,
    "ECCENTRICITY": 0.00018763,
    "INCLINATION": 1.7505,
    "RA_OF_ASC_NODE": 82.7359,
    "ARG_OF_PERICENTER": 40.0902,
    "MEAN_ANOMALY": 223.4941,
    "EPHEMERIS_TYPE": 0,
    "CLASSIFICATION_TYPE": "U",
    "NORAD_CAT_ID": 35491,
    "ELEMENT_SET_NO": 999,
    "REV_AT_EPOCH": 683,
    "BSTAR": 0,
    "MEAN_MOTION_DOT": -0.00000352,
    "MEAN_MOTION_DDOT": 0
   }
  },
  {
   "norad": 41866,
   "name": "GOES 16",
   "intl": "2016-071A",
   "group": "weather",
   "gcat": {
    "class": "C",
    "category": "MET",
    "owner": "NOAA",
    "state": "US"
   },
   "omm": {
    "OBJECT_NAME": "GOES 16",
    "OBJECT_ID": "2016-071A",
    "EPOCH": "2026-07-11T19:54:18.659232",
    "MEAN_MOTION": 1.0027088,
    "ECCENTRICITY": 0.0000525,
    "INCLINATION": 0.3948,
    "RA_OF_ASC_NODE": 85.5062,
    "ARG_OF_PERICENTER": 98.5955,
    "MEAN_ANOMALY": 299.5179,
    "EPHEMERIS_TYPE": 0,
    "CLASSIFICATION_TYPE": "U",
    "NORAD_CAT_ID": 41866,
    "ELEMENT_SET_NO": 999,
    "REV_AT_EPOCH": 3535,
    "BSTAR": 0,
    "MEAN_MOTION_DOT": -8.7e-7,
    "MEAN_MOTION_DDOT": 0
   }
  }
 ]
}
